{"spkid": "20065690", "covariance": {"data": [["1.34974262971735E-16", "-1.962813874482384E-16", "-1.646057936113243E-14", "2.328386698658459E-15", "-7.21779503956752E-15", "3.681437854934558E-15"], ["-1.962813874482384E-16", "2.859713016714409E-16", "2.453256247586978E-14", "-4.033720731495064E-15", "1.160911148301964E-14", "-5.487542365480846E-15"], ["-1.646057936113243E-14", "2.453256247586978E-14", "2.627028672051357E-11", "-8.55805286423066E-12", "2.561211630451444E-11", "5.04540588411133E-13"], ["2.328386698658459E-15", "-4.033720731495064E-15", "-8.55805286423066E-12", "4.469232317042748E-11", "-4.814460536940009E-11", "-3.018665587486482E-12"], ["-7.21779503956752E-15", "1.160911148301964E-14", "2.561211630451444E-11", "-4.814460536940009E-11", "6.469184016746428E-11", "3.200752352125729E-12"], ["3.681437854934558E-15", "-5.487542365480846E-15", "5.04540588411133E-13", "-3.018665587486482E-12", "3.200752352125729E-12", "9.862044353452105E-12"]], "elements": [{"title": "eccentricity", "value": ".3630687706171419", "units": null, "name": "e", "sigma": 1.16178424404764e-08, "label": "e"}, {"name": "q", "sigma": 1.69106860201306e-08, "value": ".9090622055731709", "title": "perihelion distance", "units": "au", "label": "q"}, {"name": "tp", "sigma": 5.12545478182313e-06, "title": "time of perihelion passage", "value": "2458363.977315779731", "units": "TDB", "label": "tp"}, {"units": "deg", "title": "longitude of the ascending node", "value": "180.1619976122505", "sigma": 6.68523172152076e-06, "name": "om", "label": "node"}, {"units": "deg", "title": "argument of perihelion", "value": "63.32005788855656", "name": "w", "sigma": 8.04312378168236e-06, "label": "peri"}, {"label": "i", "title": "inclination", "value": "11.14960790866963", "units": "deg", "name": "i", "sigma": 3.14038920413571e-06}], "labels": ["e", "q", "tp", "node", "peri", "i"], "epoch": "2458557.5"}, "elements": [{"label": "e", "sigma": "1.1623E-8", "name": "e", "title": "eccentricity", "value": ".3632452160872446", "units": null}, {"units": "au", "title": "semi-major axis", "value": "1.427753958455449", "sigma": "1.1496E-9", "name": "a", "label": "a"}, {"label": "q", "title": "perihelion distance", "value": ".9091291632968805", "units": "au", "sigma": "1.6868E-8", "name": "q"}, {"units": "deg", "value": "11.14193685576332", "title": "inclination; angle with respect to x-y ecliptic plane", "sigma": "3.1412E-6", "name": "i", "label": "i"}, {"label": "node", "value": "180.0773648694291", "title": "longitude of the ascending node", "units": "deg", "sigma": "6.686E-6", "name": "om"}, {"value": "63.40081220567599", "title": "argument of perihelion", "units": "deg", "name": "w", "sigma": "8.0628E-6", "label": "peri"}, {"sigma": "3.7538E-6", "name": "ma", "title": "mean anomaly", "value": "198.9365351266635", "units": "deg", "label": "M"}, {"label": "tp", "sigma": "6.6955E-6", "name": "tp", "title": "time of perihelion passage", "value": "2461479.287323917324", "units": "TDB"}, {"label": "period", "sigma": "7.5257E-7", "name": "per", "value": "623.1297500594842", "title": "sidereal orbital period", "units": "d"}, {"label": "n", "sigma": "6.9773E-10", "name": "n", "units": "deg/d", "value": ".5777287955929472", "title": "mean motion"}, {"units": "au", "value": "1.946378753614017", "title": "aphelion distance", "name": "ad", "sigma": "1.5671E-9", "label": "Q"}], "epoch": "2461200.5"}